[{"OBJECT_NAME":"STARLINK-30872","OBJECT_ID":"2023-170V","EPOCH":"2026-03-09T23:40:20.980416","MEAN_MOTION":15.27564688,"ECCENTRICITY":0.00015487,"INCLINATION":43.0032,"RA_OF_ASC_NODE":50.6306,"ARG_OF_PERICENTER":279.0718,"MEAN_ANOMALY":80.9959,"EPHEMERIS_TYPE":0,"CLASSIFICATION_TYPE":"U","NORAD_CAT_ID":58225,"ELEMENT_SET_NO":999,"REV_AT_EPOCH":13201,"BSTAR":0.0001032739,"MEAN_MOTION_DOT":2.579e-5,"MEAN_MOTION_DDOT":0},{"OBJECT_NAME":"COSMOS 546","OBJECT_ID":"1973-005A","EPOCH":"2026-03-09T21:40:39.247392","MEAN_MOTION":15.29707303,"ECCENTRICITY":0.00147738,"INCLINATION":50.6327,"RA_OF_ASC_NODE":289.914,"ARG_OF_PERICENTER":261.1516,"MEAN_ANOMALY":98.7778,"EPHEMERIS_TYPE":0,"CLASSIFICATION_TYPE":"U","NORAD_CAT_ID":6350,"ELEMENT_SET_NO":999,"REV_AT_EPOCH":92802,"BSTAR":9.142057e-5,"MEAN_MOTION_DOT":2.316e-5,"MEAN_MOTION_DDOT":0}]
